EXO-0                   
1 59175U 23174DK  26068.71046781  .00011582  00000+0  36716-3 0  9992
2 59175  97.3864 148.9039 0009878 157.1125 203.0559 15.32821991129797
STARLINK-35850          
1 66352U 25254E   26068.71488572  .00028299  00000+0  96349-3 0  9997
2 66352  53.1597 232.0429 0002678 163.9442 196.1644 15.30213775 18989
