[{"OBJECT_NAME":"EXO-0","OBJECT_ID":"2023-174DK","EPOCH":"2026-03-09T17:03:04.419648","MEAN_MOTION":15.32821991,"ECCENTRICITY":0.00098779,"INCLINATION":97.3864,"RA_OF_ASC_NODE":148.9039,"ARG_OF_PERICENTER":157.1125,"MEAN_ANOMALY":203.0559,"EPHEMERIS_TYPE":0,"CLASSIFICATION_TYPE":"U","NORAD_CAT_ID":59175,"ELEMENT_SET_NO":999,"REV_AT_EPOCH":12979,"BSTAR":0.00036716083,"MEAN_MOTION_DOT":0.00011582,"MEAN_MOTION_DDOT":0},{"OBJECT_NAME":"STARLINK-35850","OBJECT_ID":"2025-254E","EPOCH":"2026-03-09T17:09:26.126208","MEAN_MOTION":15.30213775,"ECCENTRICITY":0.00026777,"INCLINATION":53.1597,"RA_OF_ASC_NODE":232.0429,"ARG_OF_PERICENTER":163.9442,"MEAN_ANOMALY":196.1644,"EPHEMERIS_TYPE":0,"CLASSIFICATION_TYPE":"U","NORAD_CAT_ID":66352,"ELEMENT_SET_NO":999,"REV_AT_EPOCH":1898,"BSTAR":0.00096348694,"MEAN_MOTION_DOT":0.00028299,"MEAN_MOTION_DDOT":0}]
